{
  "type": "FeatureCollection",
  "features": [
    {
      "type": "Feature",
      "properties": {
        "norad_id": 41877,
        "name": "RESOURCESAT-2A",
        "group": "resource",
        "lat": 20.740462635567976,
        "lon": -124.19010279158371,
        "alt_km": 820.1928495912625,
        "timestamp": "2025-12-08T13:49:31.450800+00:00",
        "meta_object_name": "RESOURCESAT-2A",
        "meta_object_id": "2016-074A",
        "meta_epoch": "2025-12-08T06:19:24.574368",
        "meta_mean_motion": 14.21596882,
        "meta_eccentricity": 0.00011352,
        "meta_inclination": 98.7763,
        "meta_ra_of_asc_node": 52.1455,
        "meta_arg_of_pericenter": 275.4853,
        "meta_mean_anomaly": 84.6195,
        "meta_ephemeris_type": 0,
        "meta_classification_type": "U",
        "meta_norad_cat_id": 41877,
        "meta_element_set_no": 999,
        "meta_rev_at_epoch": 46717,
        "meta_bstar": 0.00018442572,
        "meta_mean_motion_dot": 3.6e-06,
        "meta_mean_motion_ddot": 0,
        "tle_line1": "1 41877U 16074A   25342.26347887  .00000360  00000+0  18443-3 0  9997",
        "tle_line2": "2 41877  98.7763  52.1455 0001135 275.4853  84.6195 14.21596882467179"
      },
      "geometry": {
        "type": "Point",
        "coordinates": [
          -124.19010279158371,
          20.740462635567976
        ]
      }
    },
    {
      "type": "Feature",
      "properties": {
        "norad_id": 41948,
        "name": "CARTOSAT-2D",
        "group": "resource",
        "lat": 35.174474624872964,
        "lon": -134.5797890468026,
        "alt_km": 503.4637282780923,
        "timestamp": "2025-12-08T13:49:31.450810+00:00",
        "meta_object_name": "CARTOSAT-2D",
        "meta_object_id": "2017-008A",
        "meta_epoch": "2025-12-08T06:52:07.131360",
        "meta_mean_motion": 15.19190146,
        "meta_eccentricity": 0.00042838,
        "meta_inclination": 97.4391,
        "meta_ra_of_asc_node": 39.8512,
        "meta_arg_of_pericenter": 176.3307,
        "meta_mean_anomaly": 183.796,
        "meta_ephemeris_type": 0,
        "meta_classification_type": "U",
        "meta_norad_cat_id": 41948,
        "meta_element_set_no": 999,
        "meta_rev_at_epoch": 48859,
        "meta_bstar": 0.0003164984,
        "meta_mean_motion_dot": 6.594e-05,
        "meta_mean_motion_ddot": 0,
        "tle_line1": "1 41948U 17008A   25342.28619365  .00006594  00000+0  31650-3 0  9999",
        "tle_line2": "2 41948  97.4391  39.8512 0004283 176.3307 183.7960 15.19190146488598"
      },
      "geometry": {
        "type": "Point",
        "coordinates": [
          -134.5797890468026,
          35.174474624872964
        ]
      }
    },
    {
      "type": "Feature",
      "properties": {
        "norad_id": 42063,
        "name": "SENTINEL-2B",
        "group": "resource",
        "lat": -10.42422925098499,
        "lon": 56.67066309632647,
        "alt_km": 793.4391153359456,
        "timestamp": "2025-12-08T13:49:31.450821+00:00",
        "meta_object_name": "SENTINEL-2B",
        "meta_object_id": "2017-013A",
        "meta_epoch": "2025-12-08T05:28:58.536192",
        "meta_mean_motion": 14.30813596,
        "meta_eccentricity": 0.00011297,
        "meta_inclination": 98.5723,
        "meta_ra_of_asc_node": 54.7378,
        "meta_arg_of_pericenter": 97.8858,
        "meta_mean_anomaly": 262.2453,
        "meta_ephemeris_type": 0,
        "meta_classification_type": "U",
        "meta_norad_cat_id": 42063,
        "meta_element_set_no": 999,
        "meta_rev_at_epoch": 45733,
        "meta_bstar": 0.0001486747,
        "meta_mean_motion_dot": 3.46e-06,
        "meta_mean_motion_ddot": 0,
        "tle_line1": "1 42063U 17013A   25342.22845528  .00000346  00000+0  14867-3 0  9990",
        "tle_line2": "2 42063  98.5723  54.7378 0001129  97.8858 262.2453 14.30813596457339"
      },
      "geometry": {
        "type": "Point",
        "coordinates": [
          56.67066309632647,
          -10.42422925098499
        ]
      }
    },
    {
      "type": "Feature",
      "properties": {
        "norad_id": 42767,
        "name": "CARTOSAT-2E",
        "group": "resource",
        "lat": 54.133254667721495,
        "lon": 29.781125227895338,
        "alt_km": 504.4875349647964,
        "timestamp": "2025-12-08T13:49:31.450831+00:00",
        "meta_object_name": "CARTOSAT-2E",
        "meta_object_id": "2017-036C",
        "meta_epoch": "2025-12-08T05:40:52.528512",
        "meta_mean_motion": 15.19253668,
        "meta_eccentricity": 0.0002333,
        "meta_inclination": 97.4558,
        "meta_ra_of_asc_node": 39.882,
        "meta_arg_of_pericenter": 259.1354,
        "meta_mean_anomaly": 100.9618,
        "meta_ephemeris_type": 0,
        "meta_classification_type": "U",
        "meta_norad_cat_id": 42767,
        "meta_element_set_no": 999,
        "meta_rev_at_epoch": 46915,
        "meta_bstar": 0.00034679344,
        "meta_mean_motion_dot": 7.244e-05,
        "meta_mean_motion_ddot": 0,
        "tle_line1": "1 42767U 17036C   25342.23671908  .00007244  00000+0  34679-3 0  9993",
        "tle_line2": "2 42767  97.4558  39.8820 0002333 259.1354 100.9618 15.19253668469152"
      },
      "geometry": {
        "type": "Point",
        "coordinates": [
          29.781125227895338,
          54.133254667721495
        ]
      }
    },
    {
      "type": "Feature",
      "properties": {
        "norad_id": 42920,
        "name": "FORMOSAT-5",
        "group": "resource",
        "lat": 48.93262095640035,
        "lon": 47.39775641825069,
        "alt_km": 719.1828355809475,
        "timestamp": "2025-12-08T13:49:31.450842+00:00",
        "meta_object_name": "FORMOSAT-5",
        "meta_object_id": "2017-049A",
        "meta_epoch": "2025-12-08T06:58:39.347616",
        "meta_mean_motion": 14.51001615,
        "meta_eccentricity": 0.00100693,
        "meta_inclination": 98.2457,
        "meta_ra_of_asc_node": 56.6979,
        "meta_arg_of_pericenter": 310.5807,
        "meta_mean_anomaly": 49.4511,
        "meta_ephemeris_type": 0,
        "meta_classification_type": "U",
        "meta_norad_cat_id": 42920,
        "meta_element_set_no": 999,
        "meta_rev_at_epoch": 43899,
        "meta_bstar": 0.00014592264,
        "meta_mean_motion_dot": 5.33e-06,
        "meta_mean_motion_ddot": 0,
        "tle_line1": "1 42920U 17049A   25342.29073319  .00000533  00000+0  14592-3 0  9992",
        "tle_line2": "2 42920  98.2457  56.6979 0010069 310.5807  49.4511 14.51001615438997"
      },
      "geometry": {
        "type": "Point",
        "coordinates": [
          47.39775641825069,
          48.93262095640035
        ]
      }
    },
    {
      "type": "Feature",
      "properties": {
        "norad_id": 42969,
        "name": "SENTINEL-5P",
        "group": "resource",
        "lat": -16.167097723002016,
        "lon": 98.62988387211156,
        "alt_km": 831.988697396343,
        "timestamp": "2025-12-08T13:49:31.450853+00:00",
        "meta_object_name": "SENTINEL-5P",
        "meta_object_id": "2017-064A",
        "meta_epoch": "2025-12-08T06:08:13.913376",
        "meta_mean_motion": 14.1951589,
        "meta_eccentricity": 9.623e-05,
        "meta_inclination": 98.7779,
        "meta_ra_of_asc_node": 280.8798,
        "meta_arg_of_pericenter": 86.8806,
        "meta_mean_anomaly": 273.248,
        "meta_ephemeris_type": 0,
        "meta_classification_type": "U",
        "meta_norad_cat_id": 42969,
        "meta_element_set_no": 999,
        "meta_rev_at_epoch": 42247,
        "meta_bstar": 0.00011654444,
        "meta_mean_motion_dot": 2.01e-06,
        "meta_mean_motion_ddot": 0,
        "tle_line1": "1 42969U 17064A   25342.25571659  .00000201  00000+0  11654-3 0  9996",
        "tle_line2": "2 42969  98.7779 280.8798 0000962  86.8806 273.2480 14.19515890422472"
      },
      "geometry": {
        "type": "Point",
        "coordinates": [
          98.62988387211156,
          -16.167097723002016
        ]
      }
    },
    {
      "type": "Feature",
      "properties": {
        "norad_id": 42987,
        "name": "SKYSAT-C11",
        "group": "resource",
        "lat": -17.501212125616103,
        "lon": -62.38758475250154,
        "alt_km": 430.0825472638089,
        "timestamp": "2025-12-08T13:49:31.450863+00:00",
        "meta_object_name": "SKYSAT-C11",
        "meta_object_id": "2017-068A",
        "meta_epoch": "2025-12-08T06:45:55.491264",
        "meta_mean_motion": 15.47167736,
        "meta_eccentricity": 9.304e-05,
        "meta_inclination": 97.4146,
        "meta_ra_of_asc_node": 119.6646,
        "meta_arg_of_pericenter": 106.015,
        "meta_mean_anomaly": 254.1203,
        "meta_ephemeris_type": 0,
        "meta_classification_type": "U",
        "meta_norad_cat_id": 42987,
        "meta_element_set_no": 999,
        "meta_rev_at_epoch": 45362,
        "meta_bstar": 0.00053717635,
        "meta_mean_motion_dot": 0.0002724,
        "meta_mean_motion_ddot": 0,
        "tle_line1": "1 42987U 17068A   25342.28189226  .00027240  00000+0  53718-3 0  9997",
        "tle_line2": "2 42987  97.4146 119.6646 0000930 106.0150 254.1203 15.47167736453625"
      },
      "geometry": {
        "type": "Point",
        "coordinates": [
          -62.38758475250154,
          -17.501212125616103
        ]
      }
    }
  ]
}